CCSDS_OMM_VERS = 2.0
CREATION_DATE  = 
ORIGINATOR     = 

OBJECT_NAME    = STARLINK-36772
OBJECT_ID      = 2026-026A
CENTER_NAME    = EARTH
REF_FRAME      = TEME
TIME_SYSTEM    = UTC
MEAN_ELEMENT_THEORY = SGP/SGP4

EPOCH          = 2026-03-03T04:06:19.324800
MEAN_MOTION    = 15.74192121
ECCENTRICITY   = .0001438
INCLINATION    = 97.2839
RA_OF_ASC_NODE = 116.5100
ARG_OF_PERICENTER = 94.0415
MEAN_ANOMALY   = 266.1015

EPHEMERIS_TYPE = 0
CLASSIFICATION_TYPE = U
NORAD_CAT_ID   = 67721
ELEMENT_SET_NO = 999
REV_AT_EPOCH   = 310
BSTAR          = -.6234E-2
MEAN_MOTION_DOT = -.810584E-2
MEAN_MOTION_DDOT = 0

CCSDS_OMM_VERS = 2.0
CREATION_DATE  = 
ORIGINATOR     = 

OBJECT_NAME    = STARLINK-36796
OBJECT_ID      = 2026-026B
CENTER_NAME    = EARTH
REF_FRAME      = TEME
TIME_SYSTEM    = UTC
MEAN_ELEMENT_THEORY = SGP/SGP4

EPOCH          = 2026-03-03T04:00:01.999584
MEAN_MOTION    = 15.72892275
ECCENTRICITY   = .000146
INCLINATION    = 97.2838
RA_OF_ASC_NODE = 116.5085
ARG_OF_PERICENTER = 71.1221
MEAN_ANOMALY   = 266.3504

EPHEMERIS_TYPE = 0
CLASSIFICATION_TYPE = U
NORAD_CAT_ID   = 67722
ELEMENT_SET_NO = 999
REV_AT_EPOCH   = 426
BSTAR          = -.16407E-1
MEAN_MOTION_DOT = -.192573E-1
MEAN_MOTION_DDOT = 0

CCSDS_OMM_VERS = 2.0
CREATION_DATE  = 
ORIGINATOR     = 

OBJECT_NAME    = STARLINK-36369
OBJECT_ID      = 2026-026C
CENTER_NAME    = EARTH
REF_FRAME      = TEME
TIME_SYSTEM    = UTC
MEAN_ELEMENT_THEORY = SGP/SGP4

EPOCH          = 2026-03-03T04:00:01.999584
MEAN_MOTION    = 15.73295550
ECCENTRICITY   = .0001539
INCLINATION    = 97.2836
RA_OF_ASC_NODE = 116.5120
ARG_OF_PERICENTER = 61.2839
MEAN_ANOMALY   = 284.6861

EPHEMERIS_TYPE = 0
CLASSIFICATION_TYPE = U
NORAD_CAT_ID   = 67723
ELEMENT_SET_NO = 999
REV_AT_EPOCH   = 426
BSTAR          = -.16158E-1
MEAN_MOTION_DOT = -.1929214E-1
MEAN_MOTION_DDOT = 0

CCSDS_OMM_VERS = 2.0
CREATION_DATE  = 
ORIGINATOR     = 

OBJECT_NAME    = STARLINK-36752
OBJECT_ID      = 2026-026D
CENTER_NAME    = EARTH
REF_FRAME      = TEME
TIME_SYSTEM    = UTC
MEAN_ELEMENT_THEORY = SGP/SGP4

EPOCH          = 2026-03-03T04:00:01.999584
MEAN_MOTION    = 15.74590253
ECCENTRICITY   = .0001548
INCLINATION    = 97.2837
RA_OF_ASC_NODE = 116.5192
ARG_OF_PERICENTER = 65.2014
MEAN_ANOMALY   = 296.0376

EPHEMERIS_TYPE = 0
CLASSIFICATION_TYPE = U
NORAD_CAT_ID   = 67724
ELEMENT_SET_NO = 999
REV_AT_EPOCH   = 426
BSTAR          = -.1532E-1
MEAN_MOTION_DOT = -.1934096E-1
MEAN_MOTION_DDOT = 0

CCSDS_OMM_VERS = 2.0
CREATION_DATE  = 
ORIGINATOR     = 

OBJECT_NAME    = STARLINK-36754
OBJECT_ID      = 2026-026E
CENTER_NAME    = EARTH
REF_FRAME      = TEME
TIME_SYSTEM    = UTC
MEAN_ELEMENT_THEORY = SGP/SGP4

EPOCH          = 2026-03-03T04:00:01.999584
MEAN_MOTION    = 15.72001695
ECCENTRICITY   = .0001506
INCLINATION    = 97.2835
RA_OF_ASC_NODE = 116.5141
ARG_OF_PERICENTER = 65.0278
MEAN_ANOMALY   = 285.5615

EPHEMERIS_TYPE = 0
CLASSIFICATION_TYPE = U
NORAD_CAT_ID   = 67725
ELEMENT_SET_NO = 999
REV_AT_EPOCH   = 426
BSTAR          = -.17055E-1
MEAN_MOTION_DOT = -.192688E-1
MEAN_MOTION_DDOT = 0

CCSDS_OMM_VERS = 2.0
CREATION_DATE  = 
ORIGINATOR     = 

OBJECT_NAME    = STARLINK-36755
OBJECT_ID      = 2026-026F
CENTER_NAME    = EARTH
REF_FRAME      = TEME
TIME_SYSTEM    = UTC
MEAN_ELEMENT_THEORY = SGP/SGP4

EPOCH          = 2026-03-03T04:00:01.999584
MEAN_MOTION    = 15.69554237
ECCENTRICITY   = .000148
INCLINATION    = 97.2835
RA_OF_ASC_NODE = 116.5085
ARG_OF_PERICENTER = 65.9842
MEAN_ANOMALY   = 271.1998

EPHEMERIS_TYPE = 0
CLASSIFICATION_TYPE = U
NORAD_CAT_ID   = 67726
ELEMENT_SET_NO = 999
REV_AT_EPOCH   = 426
BSTAR          = -.18901E-1
MEAN_MOTION_DOT = -.1966291E-1
MEAN_MOTION_DDOT = 0

CCSDS_OMM_VERS = 2.0
CREATION_DATE  = 
ORIGINATOR     = 

OBJECT_NAME    = STARLINK-36741
OBJECT_ID      = 2026-026G
CENTER_NAME    = EARTH
REF_FRAME      = TEME
TIME_SYSTEM    = UTC
MEAN_ELEMENT_THEORY = SGP/SGP4

EPOCH          = 2026-03-03T04:00:01.999584
MEAN_MOTION    = 15.70683158
ECCENTRICITY   = .0001524
INCLINATION    = 97.2834
RA_OF_ASC_NODE = 116.5151
ARG_OF_PERICENTER = 61.6116
MEAN_ANOMALY   = 290.8279

EPHEMERIS_TYPE = 0
CLASSIFICATION_TYPE = U
NORAD_CAT_ID   = 67727
ELEMENT_SET_NO = 999
REV_AT_EPOCH   = 426
BSTAR          = -.18074E-1
MEAN_MOTION_DOT = -.1970543E-1
MEAN_MOTION_DDOT = 0

CCSDS_OMM_VERS = 2.0
CREATION_DATE  = 
ORIGINATOR     = 

OBJECT_NAME    = STARLINK-36757
OBJECT_ID      = 2026-026H
CENTER_NAME    = EARTH
REF_FRAME      = TEME
TIME_SYSTEM    = UTC
MEAN_ELEMENT_THEORY = SGP/SGP4

EPOCH          = 2026-03-03T04:00:01.999584
MEAN_MOTION    = 15.75148677
ECCENTRICITY   = .00017
INCLINATION    = 97.2838
RA_OF_ASC_NODE = 116.5295
ARG_OF_PERICENTER = 57.1261
MEAN_ANOMALY   = 332.4987

EPHEMERIS_TYPE = 0
CLASSIFICATION_TYPE = U
NORAD_CAT_ID   = 67728
ELEMENT_SET_NO = 999
REV_AT_EPOCH   = 426
BSTAR          = -.14929E-1
MEAN_MOTION_DOT = -.1931826E-1
MEAN_MOTION_DDOT = 0

CCSDS_OMM_VERS = 2.0
CREATION_DATE  = 
ORIGINATOR     = 

OBJECT_NAME    = STARLINK-36751
OBJECT_ID      = 2026-026J
CENTER_NAME    = EARTH
REF_FRAME      = TEME
TIME_SYSTEM    = UTC
MEAN_ELEMENT_THEORY = SGP/SGP4

EPOCH          = 2026-03-03T04:00:01.999584
MEAN_MOTION    = 15.75714104
ECCENTRICITY   = .0001723
INCLINATION    = 97.2839
RA_OF_ASC_NODE = 116.5365
ARG_OF_PERICENTER = 57.2393
MEAN_ANOMALY   = 349.1012

EPHEMERIS_TYPE = 0
CLASSIFICATION_TYPE = U
NORAD_CAT_ID   = 67729
ELEMENT_SET_NO = 999
REV_AT_EPOCH   = 426
BSTAR          = -.14534E-1
MEAN_MOTION_DOT = -.1928585E-1
MEAN_MOTION_DDOT = 0

CCSDS_OMM_VERS = 2.0
CREATION_DATE  = 
ORIGINATOR     = 

OBJECT_NAME    = STARLINK-36747
OBJECT_ID      = 2026-026K
CENTER_NAME    = EARTH
REF_FRAME      = TEME
TIME_SYSTEM    = UTC
MEAN_ELEMENT_THEORY = SGP/SGP4

EPOCH          = 2026-03-03T04:00:01.999584
MEAN_MOTION    = 15.75617724
ECCENTRICITY   = .000163
INCLINATION    = 97.2839
RA_OF_ASC_NODE = 116.5333
ARG_OF_PERICENTER = 58.9323
MEAN_ANOMALY   = 338.4094

EPHEMERIS_TYPE = 0
CLASSIFICATION_TYPE = U
NORAD_CAT_ID   = 67730
ELEMENT_SET_NO = 999
REV_AT_EPOCH   = 426
BSTAR          = -.14616E-1
MEAN_MOTION_DOT = -.1930778E-1
MEAN_MOTION_DDOT = 0

CCSDS_OMM_VERS = 2.0
CREATION_DATE  = 
ORIGINATOR     = 

OBJECT_NAME    = STARLINK-36315
OBJECT_ID      = 2026-026L
CENTER_NAME    = EARTH
REF_FRAME      = TEME
TIME_SYSTEM    = UTC
MEAN_ELEMENT_THEORY = SGP/SGP4

EPOCH          = 2026-03-03T04:00:01.999584
MEAN_MOTION    = 15.75889614
ECCENTRICITY   = .0001613
INCLINATION    = 97.2840
RA_OF_ASC_NODE = 116.5393
ARG_OF_PERICENTER = 62.5405
MEAN_ANOMALY   = 350.0413

EPHEMERIS_TYPE = 0
CLASSIFICATION_TYPE = U
NORAD_CAT_ID   = 67731
ELEMENT_SET_NO = 999
REV_AT_EPOCH   = 426
BSTAR          = -.14405E-1
MEAN_MOTION_DOT = -.192654E-1
MEAN_MOTION_DDOT = 0

CCSDS_OMM_VERS = 2.0
CREATION_DATE  = 
ORIGINATOR     = 

OBJECT_NAME    = STARLINK-36260
OBJECT_ID      = 2026-026M
CENTER_NAME    = EARTH
REF_FRAME      = TEME
TIME_SYSTEM    = UTC
MEAN_ELEMENT_THEORY = SGP/SGP4

EPOCH          = 2026-03-03T04:00:01.999584
MEAN_MOTION    = 15.76272157
ECCENTRICITY   = .0001786
INCLINATION    = 97.2842
RA_OF_ASC_NODE = 116.5422
ARG_OF_PERICENTER = 55.8917
MEAN_ANOMALY   = 4.9708

EPHEMERIS_TYPE = 0
CLASSIFICATION_TYPE = U
NORAD_CAT_ID   = 67732
ELEMENT_SET_NO = 999
REV_AT_EPOCH   = 426
BSTAR          = -.14191E-1
MEAN_MOTION_DOT = -.1929918E-1
MEAN_MOTION_DDOT = 0

